{
  "type": "FeatureCollection",
  "features": [
    {
      "type": "Feature",
      "properties": {
        "norad_id": 33924,
        "name": "COSMOS 2251 DEB",
        "group": "cosmos-2251-debris",
        "lat": 73.67474371551717,
        "lon": -17.8400717605504,
        "alt_km": 1323.286012171442,
        "timestamp": "2025-12-17T19:34:08.430760+00:00",
        "meta_object_name": "COSMOS 2251 DEB",
        "meta_object_id": "1993-036ED",
        "meta_epoch": "2025-12-17T04:54:18.644544",
        "meta_mean_motion": 13.5023165,
        "meta_eccentricity": 0.04039564,
        "meta_inclination": 73.9135,
        "meta_ra_of_asc_node": 263.0249,
        "meta_arg_of_pericenter": 297.6915,
        "meta_mean_anomaly": 58.3749,
        "meta_ephemeris_type": 0,
        "meta_classification_type": "U",
        "meta_norad_cat_id": 33924,
        "meta_element_set_no": 999,
        "meta_rev_at_epoch": 82799,
        "meta_bstar": 0.00053310117,
        "meta_mean_motion_dot": 5.41e-06,
        "meta_mean_motion_ddot": 0,
        "tle_line1": "1 33924U 93036ED  25351.20438246  .00000541  00000+0  53310-3 0  9991",
        "tle_line2": "2 33924  73.9135 263.0249 0403956 297.6915  58.3749 13.50231650827990"
      },
      "geometry": {
        "type": "Point",
        "coordinates": [
          -17.8400717605504,
          73.67474371551717
        ]
      }
    },
    {
      "type": "Feature",
      "properties": {
        "norad_id": 33928,
        "name": "COSMOS 2251 DEB",
        "group": "cosmos-2251-debris",
        "lat": -26.562709167936013,
        "lon": 34.72140712663102,
        "alt_km": 695.6682339146337,
        "timestamp": "2025-12-17T19:34:08.430770+00:00",
        "meta_object_name": "COSMOS 2251 DEB",
        "meta_object_id": "1993-036EH",
        "meta_epoch": "2025-12-17T04:45:58.280544",
        "meta_mean_motion": 14.47412514,
        "meta_eccentricity": 0.00616824,
        "meta_inclination": 73.9258,
        "meta_ra_of_asc_node": 44.1704,
        "meta_arg_of_pericenter": 337.3441,
        "meta_mean_anomaly": 22.4995,
        "meta_ephemeris_type": 0,
        "meta_classification_type": "U",
        "meta_norad_cat_id": 33928,
        "meta_element_set_no": 999,
        "meta_rev_at_epoch": 88709,
        "meta_bstar": 0.00019497183,
        "meta_mean_motion_dot": 7.03e-06,
        "meta_mean_motion_ddot": 0,
        "tle_line1": "1 33928U 93036EH  25351.19859121  .00000703  00000+0  19497-3 0  9990",
        "tle_line2": "2 33928  73.9258  44.1704 0061682 337.3441  22.4995 14.47412514887095"
      },
      "geometry": {
        "type": "Point",
        "coordinates": [
          34.72140712663102,
          -26.562709167936013
        ]
      }
    },
    {
      "type": "Feature",
      "properties": {
        "norad_id": 33932,
        "name": "COSMOS 2251 DEB",
        "group": "cosmos-2251-debris",
        "lat": -46.04861491189708,
        "lon": -70.71900102445912,
        "alt_km": 760.1571994644064,
        "timestamp": "2025-12-17T19:34:08.430780+00:00",
        "meta_object_name": "COSMOS 2251 DEB",
        "meta_object_id": "1993-036EM",
        "meta_epoch": "2025-12-17T06:26:34.069632",
        "meta_mean_motion": 14.38771523,
        "meta_eccentricity": 0.0035542,
        "meta_inclination": 74.0339,
        "meta_ra_of_asc_node": 307.5648,
        "meta_arg_of_pericenter": 22.6287,
        "meta_mean_anomaly": 337.6424,
        "meta_ephemeris_type": 0,
        "meta_classification_type": "U",
        "meta_norad_cat_id": 33932,
        "meta_element_set_no": 999,
        "meta_rev_at_epoch": 88063,
        "meta_bstar": 0.00041985783,
        "meta_mean_motion_dot": 1.273e-05,
        "meta_mean_motion_ddot": 0,
        "tle_line1": "1 33932U 93036EM  25351.26844988  .00001273  00000+0  41986-3 0  9999",
        "tle_line2": "2 33932  74.0339 307.5648 0035542  22.6287 337.6424 14.38771523880632"
      },
      "geometry": {
        "type": "Point",
        "coordinates": [
          -70.71900102445912,
          -46.04861491189708
        ]
      }
    },
    {
      "type": "Feature",
      "properties": {
        "norad_id": 33933,
        "name": "COSMOS 2251 DEB",
        "group": "cosmos-2251-debris",
        "lat": 59.912458435613985,
        "lon": 80.37952739117816,
        "alt_km": 723.4972652656515,
        "timestamp": "2025-12-17T19:34:08.430790+00:00",
        "meta_object_name": "COSMOS 2251 DEB",
        "meta_object_id": "1993-036EN",
        "meta_epoch": "2025-12-17T05:52:31.412064",
        "meta_mean_motion": 14.33495917,
        "meta_eccentricity": 0.00708404,
        "meta_inclination": 74.0893,
        "meta_ra_of_asc_node": 51.926,
        "meta_arg_of_pericenter": 58.9885,
        "meta_mean_anomaly": 301.8199,
        "meta_ephemeris_type": 0,
        "meta_classification_type": "U",
        "meta_norad_cat_id": 33933,
        "meta_element_set_no": 999,
        "meta_rev_at_epoch": 87849,
        "meta_bstar": 0.00022506666,
        "meta_mean_motion_dot": 6.15e-06,
        "meta_mean_motion_ddot": 0,
        "tle_line1": "1 33933U 93036EN  25351.24480801  .00000615  00000+0  22507-3 0  9995",
        "tle_line2": "2 33933  74.0893  51.9260 0070840  58.9885 301.8199 14.33495917878492"
      },
      "geometry": {
        "type": "Point",
        "coordinates": [
          80.37952739117816,
          59.912458435613985
        ]
      }
    },
    {
      "type": "Feature",
      "properties": {
        "norad_id": 33934,
        "name": "COSMOS 2251 DEB",
        "group": "cosmos-2251-debris",
        "lat": -65.47253320753612,
        "lon": 52.054754078340245,
        "alt_km": 699.79740659033,
        "timestamp": "2025-12-17T19:34:08.430800+00:00",
        "meta_object_name": "COSMOS 2251 DEB",
        "meta_object_id": "1993-036EP",
        "meta_epoch": "2025-12-17T08:22:35.485248",
        "meta_mean_motion": 14.59148581,
        "meta_eccentricity": 0.00155081,
        "meta_inclination": 74.0383,
        "meta_ra_of_asc_node": 91.7894,
        "meta_arg_of_pericenter": 215.6527,
        "meta_mean_anomaly": 144.3604,
        "meta_ephemeris_type": 0,
        "meta_classification_type": "U",
        "meta_norad_cat_id": 33934,
        "meta_element_set_no": 999,
        "meta_rev_at_epoch": 88806,
        "meta_bstar": 0.00069417843,
        "meta_mean_motion_dot": 3.247e-05,
        "meta_mean_motion_ddot": 0,
        "tle_line1": "1 33934U 93036EP  25351.34902182  .00003247  00000+0  69418-3 0  9994",
        "tle_line2": "2 33934  74.0383  91.7894 0015508 215.6527 144.3604 14.59148581888062"
      },
      "geometry": {
        "type": "Point",
        "coordinates": [
          52.054754078340245,
          -65.47253320753612
        ]
      }
    },
    {
      "type": "Feature",
      "properties": {
        "norad_id": 33936,
        "name": "COSMOS 2251 DEB",
        "group": "cosmos-2251-debris",
        "lat": -54.765380276369996,
        "lon": -128.27849818603727,
        "alt_km": 688.0706893989163,
        "timestamp": "2025-12-17T19:34:08.430810+00:00",
        "meta_object_name": "COSMOS 2251 DEB",
        "meta_object_id": "1993-036ER",
        "meta_epoch": "2025-12-17T05:19:47.208288",
        "meta_mean_motion": 14.60299631,
        "meta_eccentricity": 0.00272358,
        "meta_inclination": 74.0185,
        "meta_ra_of_asc_node": 28.9174,
        "meta_arg_of_pericenter": 183.3881,
        "meta_mean_anomaly": 176.7105,
        "meta_ephemeris_type": 0,
        "meta_classification_type": "U",
        "meta_norad_cat_id": 33936,
        "meta_element_set_no": 999,
        "meta_rev_at_epoch": 88955,
        "meta_bstar": 0.00045985948,
        "meta_mean_motion_dot": 2.203e-05,
        "meta_mean_motion_ddot": 0,
        "tle_line1": "1 33936U 93036ER  25351.22207417  .00002203  00000+0  45986-3 0  9997",
        "tle_line2": "2 33936  74.0185  28.9174 0027235 183.3881 176.7105 14.60299631889556"
      },
      "geometry": {
        "type": "Point",
        "coordinates": [
          -128.27849818603727,
          -54.765380276369996
        ]
      }
    },
    {
      "type": "Feature",
      "properties": {
        "norad_id": 33938,
        "name": "COSMOS 2251 DEB",
        "group": "cosmos-2251-debris",
        "lat": -24.133398301446277,
        "lon": 25.064806082103896,
        "alt_km": 737.9804920426031,
        "timestamp": "2025-12-17T19:34:08.430835+00:00",
        "meta_object_name": "COSMOS 2251 DEB",
        "meta_object_id": "1993-036ET",
        "meta_epoch": "2025-12-17T01:06:38.662848",
        "meta_mean_motion": 14.46806239,
        "meta_eccentricity": 0.00168443,
        "meta_inclination": 74.0437,
        "meta_ra_of_asc_node": 199.1358,
        "meta_arg_of_pericenter": 280.8999,
        "meta_mean_anomaly": 240.1385,
        "meta_ephemeris_type": 0,
        "meta_classification_type": "U",
        "meta_norad_cat_id": 33938,
        "meta_element_set_no": 999,
        "meta_rev_at_epoch": 88462,
        "meta_bstar": 0.00036432167,
        "meta_mean_motion_dot": 1.295e-05,
        "meta_mean_motion_ddot": 0,
        "tle_line1": "1 33938U 93036ET  25351.04628082  .00001295  00000+0  36432-3 0  9990",
        "tle_line2": "2 33938  74.0437 199.1358 0016844 280.8999 240.1385 14.46806239884621"
      },
      "geometry": {
        "type": "Point",
        "coordinates": [
          25.064806082103896,
          -24.133398301446277
        ]
      }
    }
  ]
}